STARLINK-30373          
1 57790U 23134V   25216.58335648  .00187927  00000+0  36017-2 0  9991
2 57790  42.9941 242.4284 0017498  76.6712 334.4629 15.46446949  5900
STARLINK-30367          
1 57791U 23134W   25216.56818459  .00000218  00000+0  31192-4 0  9994
2 57791  43.0027 297.0186 0001218 271.4761  88.5942 15.02536294106819
STARLINK-30304          
1 57808U 23138A   25216.45112864  .00031941  00000+0  64178-3 0  9998
2 57808  42.9997 202.5126 0015292 121.9041 238.3307 15.45934587107549
STARLINK-30374          
1 57809U 23138B   25216.38462228  .00000331  00000+0  39552-4 0  9991
2 57809  43.0042 337.2010 0001410 267.2579  92.8102 15.02534628106021
STARLINK-30394          
1 57810U 23138C   25216.38129314  .00000228  00000+0  31940-4 0  9997
2 57810  43.0059 337.1775 0001329 271.7962  88.2729 15.02536863105928
STARLINK-30379          
1 57811U 23138D   25216.64387239  .00000994  00000+0  88629-4 0  9995
2 57811  43.0036 335.7057 0001354 276.8204  83.2484 15.02536722106067
STARLINK-30395          
1 57812U 23138E   25216.64054369  .00000262  00000+0  34452-4 0  9994
2 57812  43.0043 335.6807 0001225 269.9737  90.0965 15.02537740106060
STARLINK-30403          
1 57813U 23138F   25216.63721283  .00000829  00000+0  76471-4 0  9996
2 57813  43.0037 335.6559 0001473 271.7200  88.3473 15.02536958105961
STARLINK-30413          
1 57814U 23138G   25216.35132452  .00000372  00000+0  42587-4 0  9994
2 57814  43.0035 336.9535 0001225 266.7390  93.3312 15.02537902106023
STARLINK-30398          
1 57815U 23138H   25216.63387883  .00001158  00000+0  10077-3 0  9997
2 57815  43.0092 335.6359 0001412 279.0668  81.0014 15.02555584105961
STARLINK-30386          
1 57816U 23138J   25216.63056005 -.00000407  00000+0 -15023-4 0  9992
2 57816  43.0045 335.6051 0001533 266.2063  93.8604 15.02531329105888
STARLINK-30391          
1 57817U 23138K   25216.02892597 -.00000473  00000+0 -19984-4 0  9993
2 57817  43.0028 338.8305 0000951 256.8328 103.2408 15.02531826105979
STARLINK-30401          
1 57818U 23138L   25216.35798396  .00001013  00000+0  90021-4 0  9992
2 57818  43.0038 336.9999 0001209 270.8809  89.1895 15.02535031105925
STARLINK-30390          
1 57819U 23138M   25216.62056900 -.00000474  00000+0 -20042-4 0  9999
2 57819  43.0047 335.5305 0001528 266.7432  93.3235 15.02534699106006
STARLINK-30409          
1 57820U 23138N   25216.60724784  .00000421  00000+0  46226-4 0  9993
2 57820  43.0038 335.4128 0001373 268.2149  91.8536 15.02534925106009
STARLINK-30415          
1 57821U 23138P   25216.61168738  .00000244  00000+0  33107-4 0  9993
2 57821  43.0060 335.4659 0001382 264.6165  95.4519 15.02535582106069
STARLINK-30407          
1 57823U 23138R   25216.52206928 -.00003725  00000+0 -12597-3 0  9997
2 57823  43.0021 275.2291 0001542 280.4270  79.6408 15.27565182106755
