[{"OBJECT_NAME":"STARLINK-30373","OBJECT_ID":"2023-134V","EPOCH":"2025-08-04T14:00:01.999872","MEAN_MOTION":15.46446949,"ECCENTRICITY":0.0017498,"INCLINATION":42.9941,"RA_OF_ASC_NODE":242.4284,"ARG_OF_PERICENTER":76.6712,"MEAN_ANOMALY":334.4629,"EPHEMERIS_TYPE":0,"CLASSIFICATION_TYPE":"U","NORAD_CAT_ID":57790,"ELEMENT_SET_NO":999,"REV_AT_EPOCH":590,"BSTAR":0.0036017,"MEAN_MOTION_DOT":0.00187927,"MEAN_MOTION_DDOT":0},{"OBJECT_NAME":"STARLINK-30367","OBJECT_ID":"2023-134W","EPOCH":"2025-08-04T13:38:11.148576","MEAN_MOTION":15.02536294,"ECCENTRICITY":0.0001218,"INCLINATION":43.0027,"RA_OF_ASC_NODE":297.0186,"ARG_OF_PERICENTER":271.4761,"MEAN_ANOMALY":88.5942,"EPHEMERIS_TYPE":0,"CLASSIFICATION_TYPE":"U","NORAD_CAT_ID":57791,"ELEMENT_SET_NO":999,"REV_AT_EPOCH":10681,"BSTAR":3.1192e-5,"MEAN_MOTION_DOT":2.18e-6,"MEAN_MOTION_DDOT":0},{"OBJECT_NAME":"STARLINK-30304","OBJECT_ID":"2023-138A","EPOCH":"2025-08-04T10:49:37.514496","MEAN_MOTION":15.45934587,"ECCENTRICITY":0.0015292,"INCLINATION":42.9997,"RA_OF_ASC_NODE":202.5126,"ARG_OF_PERICENTER":121.9041,"MEAN_ANOMALY":238.3307,"EPHEMERIS_TYPE":0,"CLASSIFICATION_TYPE":"U","NORAD_CAT_ID":57808,"ELEMENT_SET_NO":999,"REV_AT_EPOCH":10754,"BSTAR":0.00064178,"MEAN_MOTION_DOT":0.00031941,"MEAN_MOTION_DDOT":0},{"OBJECT_NAME":"STARLINK-30374","OBJECT_ID":"2023-138B","EPOCH":"2025-08-04T09:13:51.364992","MEAN_MOTION":15.02534628,"ECCENTRICITY":0.000141,"INCLINATION":43.0042,"RA_OF_ASC_NODE":337.201,"ARG_OF_PERICENTER":267.2579,"MEAN_ANOMALY":92.8102,"EPHEMERIS_TYPE":0,"CLASSIFICATION_TYPE":"U","NORAD_CAT_ID":57809,"ELEMENT_SET_NO":999,"REV_AT_EPOCH":10602,"BSTAR":3.9552e-5,"MEAN_MOTION_DOT":3.31e-6,"MEAN_MOTION_DDOT":0},{"OBJECT_NAME":"STARLINK-30394","OBJECT_ID":"2023-138C","EPOCH":"2025-08-04T09:09:03.727296","MEAN_MOTION":15.02536863,"ECCENTRICITY":0.0001329,"INCLINATION":43.0059,"RA_OF_ASC_NODE":337.1775,"ARG_OF_PERICENTER":271.7962,"MEAN_ANOMALY":88.2729,"EPHEMERIS_TYPE":0,"CLASSIFICATION_TYPE":"U","NORAD_CAT_ID":57810,"ELEMENT_SET_NO":999,"REV_AT_EPOCH":10592,"BSTAR":3.194e-5,"MEAN_MOTION_DOT":2.28e-6,"MEAN_MOTION_DDOT":0},{"OBJECT_NAME":"STARLINK-30379","OBJECT_ID":"2023-138D","EPOCH":"2025-08-04T15:27:10.574496","MEAN_MOTION":15.02536722,"ECCENTRICITY":0.0001354,"INCLINATION":43.0036,"RA_OF_ASC_NODE":335.7057,"ARG_OF_PERICENTER":276.8204,"MEAN_ANOMALY":83.2484,"EPHEMERIS_TYPE":0,"CLASSIFICATION_TYPE":"U","NORAD_CAT_ID":57811,"ELEMENT_SET_NO":999,"REV_AT_EPOCH":10606,"BSTAR":8.8629e-5,"MEAN_MOTION_DOT":9.94e-6,"MEAN_MOTION_DDOT":0},{"OBJECT_NAME":"STARLINK-30395","OBJECT_ID":"2023-138E","EPOCH":"2025-08-04T15:22:22.974816","MEAN_MOTION":15.0253774,"ECCENTRICITY":0.0001225,"INCLINATION":43.0043,"RA_OF_ASC_NODE":335.6807,"ARG_OF_PERICENTER":269.9737,"MEAN_ANOMALY":90.0965,"EPHEMERIS_TYPE":0,"CLASSIFICATION_TYPE":"U","NORAD_CAT_ID":57812,"ELEMENT_SET_NO":999,"REV_AT_EPOCH":10606,"BSTAR":3.4452e-5,"MEAN_MOTION_DOT":2.62e-6,"MEAN_MOTION_DDOT":0},{"OBJECT_NAME":"STARLINK-30403","OBJECT_ID":"2023-138F","EPOCH":"2025-08-04T15:17:35.188512","MEAN_MOTION":15.02536958,"ECCENTRICITY":0.0001473,"INCLINATION":43.0037,"RA_OF_ASC_NODE":335.6559,"ARG_OF_PERICENTER":271.72,"MEAN_ANOMALY":88.3473,"EPHEMERIS_TYPE":0,"CLASSIFICATION_TYPE":"U","NORAD_CAT_ID":57813,"ELEMENT_SET_NO":999,"REV_AT_EPOCH":10596,"BSTAR":7.6471e-5,"MEAN_MOTION_DOT":8.29e-6,"MEAN_MOTION_DDOT":0},{"OBJECT_NAME":"STARLINK-30413","OBJECT_ID":"2023-138G","EPOCH":"2025-08-04T08:25:54.438528","MEAN_MOTION":15.02537902,"ECCENTRICITY":0.0001225,"INCLINATION":43.0035,"RA_OF_ASC_NODE":336.9535,"ARG_OF_PERICENTER":266.739,"MEAN_ANOMALY":93.3312,"EPHEMERIS_TYPE":0,"CLASSIFICATION_TYPE":"U","NORAD_CAT_ID":57814,"ELEMENT_SET_NO":999,"REV_AT_EPOCH":10602,"BSTAR":4.2587e-5,"MEAN_MOTION_DOT":3.72e-6,"MEAN_MOTION_DDOT":0},{"OBJECT_NAME":"STARLINK-30398","OBJECT_ID":"2023-138H","EPOCH":"2025-08-04T15:12:47.130912","MEAN_MOTION":15.02555584,"ECCENTRICITY":0.0001412,"INCLINATION":43.0092,"RA_OF_ASC_NODE":335.6359,"ARG_OF_PERICENTER":279.0668,"MEAN_ANOMALY":81.0014,"EPHEMERIS_TYPE":0,"CLASSIFICATION_TYPE":"U","NORAD_CAT_ID":57815,"ELEMENT_SET_NO":999,"REV_AT_EPOCH":10596,"BSTAR":0.00010077,"MEAN_MOTION_DOT":1.158e-5,"MEAN_MOTION_DDOT":0},{"OBJECT_NAME":"STARLINK-30386","OBJECT_ID":"2023-138J","EPOCH":"2025-08-04T15:08:00.388320","MEAN_MOTION":15.02531329,"ECCENTRICITY":0.0001533,"INCLINATION":43.0045,"RA_OF_ASC_NODE":335.6051,"ARG_OF_PERICENTER":266.2063,"MEAN_ANOMALY":93.8604,"EPHEMERIS_TYPE":0,"CLASSIFICATION_TYPE":"U","NORAD_CAT_ID":57816,"ELEMENT_SET_NO":999,"REV_AT_EPOCH":10588,"BSTAR":-1.5023e-5,"MEAN_MOTION_DOT":-4.07e-6,"MEAN_MOTION_DDOT":0},{"OBJECT_NAME":"STARLINK-30391","OBJECT_ID":"2023-138K","EPOCH":"2025-08-04T00:41:39.203808","MEAN_MOTION":15.02531826,"ECCENTRICITY":9.51e-5,"INCLINATION":43.0028,"RA_OF_ASC_NODE":338.8305,"ARG_OF_PERICENTER":256.8328,"MEAN_ANOMALY":103.2408,"EPHEMERIS_TYPE":0,"CLASSIFICATION_TYPE":"U","NORAD_CAT_ID":57817,"ELEMENT_SET_NO":999,"REV_AT_EPOCH":10597,"BSTAR":-1.9984e-5,"MEAN_MOTION_DOT":-4.73e-6,"MEAN_MOTION_DDOT":0},{"OBJECT_NAME":"STARLINK-30401","OBJECT_ID":"2023-138L","EPOCH":"2025-08-04T08:35:29.814144","MEAN_MOTION":15.02535031,"ECCENTRICITY":0.0001209,"INCLINATION":43.0038,"RA_OF_ASC_NODE":336.9999,"ARG_OF_PERICENTER":270.8809,"MEAN_ANOMALY":89.1895,"EPHEMERIS_TYPE":0,"CLASSIFICATION_TYPE":"U","NORAD_CAT_ID":57818,"ELEMENT_SET_NO":999,"REV_AT_EPOCH":10592,"BSTAR":9.0021e-5,"MEAN_MOTION_DOT":1.013e-5,"MEAN_MOTION_DDOT":0},{"OBJECT_NAME":"STARLINK-30390","OBJECT_ID":"2023-138M","EPOCH":"2025-08-04T14:53:37.161600","MEAN_MOTION":15.02534699,"ECCENTRICITY":0.0001528,"INCLINATION":43.0047,"RA_OF_ASC_NODE":335.5305,"ARG_OF_PERICENTER":266.7432,"MEAN_ANOMALY":93.3235,"EPHEMERIS_TYPE":0,"CLASSIFICATION_TYPE":"U","NORAD_CAT_ID":57819,"ELEMENT_SET_NO":999,"REV_AT_EPOCH":10600,"BSTAR":-2.0042e-5,"MEAN_MOTION_DOT":-4.74e-6,"MEAN_MOTION_DDOT":0},{"OBJECT_NAME":"STARLINK-30409","OBJECT_ID":"2023-138N","EPOCH":"2025-08-04T14:34:26.213376","MEAN_MOTION":15.02534925,"ECCENTRICITY":0.0001373,"INCLINATION":43.0038,"RA_OF_ASC_NODE":335.4128,"ARG_OF_PERICENTER":268.2149,"MEAN_ANOMALY":91.8536,"EPHEMERIS_TYPE":0,"CLASSIFICATION_TYPE":"U","NORAD_CAT_ID":57820,"ELEMENT_SET_NO":999,"REV_AT_EPOCH":10600,"BSTAR":4.6226e-5,"MEAN_MOTION_DOT":4.21e-6,"MEAN_MOTION_DDOT":0},{"OBJECT_NAME":"STARLINK-30415","OBJECT_ID":"2023-138P","EPOCH":"2025-08-04T14:40:49.789632","MEAN_MOTION":15.02535582,"ECCENTRICITY":0.0001382,"INCLINATION":43.006,"RA_OF_ASC_NODE":335.4659,"ARG_OF_PERICENTER":264.6165,"MEAN_ANOMALY":95.4519,"EPHEMERIS_TYPE":0,"CLASSIFICATION_TYPE":"U","NORAD_CAT_ID":57821,"ELEMENT_SET_NO":999,"REV_AT_EPOCH":10606,"BSTAR":3.3107e-5,"MEAN_MOTION_DOT":2.44e-6,"MEAN_MOTION_DDOT":0},{"OBJECT_NAME":"STARLINK-30407","OBJECT_ID":"2023-138R","EPOCH":"2025-08-04T12:31:46.785792","MEAN_MOTION":15.27565182,"ECCENTRICITY":0.0001542,"INCLINATION":43.0021,"RA_OF_ASC_NODE":275.2291,"ARG_OF_PERICENTER":280.427,"MEAN_ANOMALY":79.6408,"EPHEMERIS_TYPE":0,"CLASSIFICATION_TYPE":"U","NORAD_CAT_ID":57823,"ELEMENT_SET_NO":999,"REV_AT_EPOCH":10675,"BSTAR":-0.00012597,"MEAN_MOTION_DOT":-3.725e-5,"MEAN_MOTION_DDOT":0}]
